{"type": "FeatureCollection", "features": [ {"type": "Feature", "properties": {"norad_id": 44622, "name": "GAOFEN-10R", "group": "resource", "lat": -63.977499517898444, "lon": 93.14052554010668, "alt_km": 633.3696477698313, "timestamp": "2025-12-08T10:52:02.607127+00:00", "meta": {"OBJECT_NAME": "GAOFEN-10R", "OBJECT_ID": "2019-066A", "EPOCH": "2025-12-07T22:25:42.323232", "MEAN_MOTION": 14.82765993, "ECCENTRICITY": 0.00081116, "INCLINATION": 98.0275, "RA_OF_ASC_NODE": 289.4221, "ARG_OF_PERICENTER": 55.1755, "MEAN_ANOMALY": 305.022, "EPHEMERIS_TYPE": 0, "CLASSIFICATION_TYPE": "U", "NORAD_CAT_ID": 44622, "ELEMENT_SET_NO": 999, "REV_AT_EPOCH": 33403, "BSTAR": 0.00034698538, "MEAN_MOTION_DOT": 2.751e-05, "MEAN_MOTION_DDOT": 0}, "tle": {"line1": "1 44622U 19066A   25341.93451763  .00002751  00000+0  34699-3 0  9991", "line2": "2 44622  98.0275 289.4221 0008111  55.1755 305.0220 14.82765993334037"}}, "geometry": {"type": "Point", "coordinates": [93.14052554010668, -63.977499517898444]}}, {"type": "Feature", "properties": {"norad_id": 44804, "name": "CARTOSAT-3", "group": "resource", "lat": -26.11401763340849, "lon": -141.59193441993074, "alt_km": 516.2967521879955, "timestamp": "2025-12-08T10:52:02.607137+00:00", "meta": {"OBJECT_NAME": "CARTOSAT-3", "OBJECT_ID": "2019-081A", "EPOCH": "2025-12-07T22:53:56.639328", "MEAN_MOTION": 15.19309339, "ECCENTRICITY": 0.0013987, "INCLINATION": 97.4586, "RA_OF_ASC_NODE": 41.5977, "ARG_OF_PERICENTER": 102.0895, "MEAN_ANOMALY": 258.1908, "EPHEMERIS_TYPE": 0, "CLASSIFICATION_TYPE": "U", "NORAD_CAT_ID": 44804, "ELEMENT_SET_NO": 999, "REV_AT_EPOCH": 33443, "BSTAR": 0.0002763087, "MEAN_MOTION_DOT": 5.78e-05, "MEAN_MOTION_DDOT": 0}, "tle": {"line1": "1 44804U 19081A   25341.95412777  .00005780  00000+0  27631-3 0  9997", "line2": "2 44804  97.4586  41.5977 0013987 102.0895 258.1908 15.19309339334430"}}, "geometry": {"type": "Point", "coordinates": [-141.59193441993074, -26.11401763340849]}}, {"type": "Feature", "properties": {"norad_id": 44819, "name": "GAOFEN-12 01", "group": "resource", "lat": -5.076375004576378, "lon": 168.14752779085867, "alt_km": 630.7787950111288, "timestamp": "2025-12-08T10:52:02.607147+00:00", "meta": {"OBJECT_NAME": "GAOFEN-12 01", "OBJECT_ID": "2019-082A", "EPOCH": "2025-12-07T22:40:51.663360", "MEAN_MOTION": 14.80648331, "ECCENTRICITY": 0.00011893, "INCLINATION": 97.8125, "RA_OF_ASC_NODE": 348.3519, "ARG_OF_PERICENTER": 265.648, "MEAN_ANOMALY": 94.4597, "EPHEMERIS_TYPE": 0, "CLASSIFICATION_TYPE": "U", "NORAD_CAT_ID": 44819, "ELEMENT_SET_NO": 999, "REV_AT_EPOCH": 32579, "BSTAR": 0.00011757981, "MEAN_MOTION_DOT": 8.52e-06, "MEAN_MOTION_DDOT": 0}, "tle": {"line1": "1 44819U 19082A   25341.94504240  .00000852  00000+0  11758-3 0  9998", "line2": "2 44819  97.8125 348.3519 0001189 265.6480  94.4597 14.80648331325795"}}, "geometry": {"type": "Point", "coordinates": [168.14752779085867, -5.076375004576378]}}, {"type": "Feature", "properties": {"norad_id": 44873, "name": "CSG-1", "group": "resource", "lat": -81.66424855599621, "lon": -125.1807786301807, "alt_km": 630.904755402792, "timestamp": "2025-12-08T10:52:02.607161+00:00", "meta": {"OBJECT_NAME": "CSG-1", "OBJECT_ID": "2019-092A", "EPOCH": "2025-12-07T22:17:55.734720", "MEAN_MOTION": 14.82153426, "ECCENTRICITY": 0.00014677, "INCLINATION": 97.8812, "RA_OF_ASC_NODE": 163.3257, "ARG_OF_PERICENTER": 86.2886, "MEAN_ANOMALY": 273.8495, "EPHEMERIS_TYPE": 0, "CLASSIFICATION_TYPE": "U", "NORAD_CAT_ID": 44873, "ELEMENT_SET_NO": 999, "REV_AT_EPOCH": 32314, "BSTAR": 0.00013761284, "MEAN_MOTION_DOT": 1.043e-05, "MEAN_MOTION_DDOT": 0}, "tle": {"line1": "1 44873U 19092A   25341.92911730  .00001043  00000+0  13761-3 0  9992", "line2": "2 44873  97.8812 163.3257 0001467  86.2886 273.8495 14.82153426323143"}}, "geometry": {"type": "Point", "coordinates": [-125.1807786301807, -81.66424855599621]}}, {"type": "Feature", "properties": {"norad_id": 46277, "name": "NEMO-HD", "group": "resource", "lat": -74.68050767479616, "lon": -165.9669281242074, "alt_km": 454.28708402734446, "timestamp": "2025-12-08T10:52:02.607172+00:00", "meta": {"OBJECT_NAME": "NEMO-HD", "OBJECT_ID": "2020-061F", "EPOCH": "2025-12-07T21:16:59.377440", "MEAN_MOTION": 15.40177443, "ECCENTRICITY": 0.00021391, "INCLINATION": 97.2213, "RA_OF_ASC_NODE": 41.047, "ARG_OF_PERICENTER": 61.987, "MEAN_ANOMALY": 298.1593, "EPHEMERIS_TYPE": 0, "CLASSIFICATION_TYPE": "U", "NORAD_CAT_ID": 46277, "ELEMENT_SET_NO": 999, "REV_AT_EPOCH": 29249, "BSTAR": 0.00032814317, "MEAN_MOTION_DOT": 0.00013094, "MEAN_MOTION_DDOT": 0}, "tle": {"line1": "1 46277U 20061F   25341.88679835  .00013094  00000+0  32814-3 0  9991", "line2": "2 46277  97.2213  41.0470 0002139  61.9870 298.1593 15.40177443292493"}}, "geometry": {"type": "Point", "coordinates": [-165.9669281242074, -74.68050767479616]}}, {"type": "Feature", "properties": {"norad_id": 46984, "name": "SENTINEL-6A", "group": "resource", "lat": 42.32528193953536, "lon": -32.676192067139446, "alt_km": 1337.6412659792068, "timestamp": "2025-12-08T10:52:02.607182+00:00", "meta": {"OBJECT_NAME": "SENTINEL-6A", "OBJECT_ID": "2020-086A", "EPOCH": "2025-12-07T21:03:39.186432", "MEAN_MOTION": 12.8093034, "ECCENTRICITY": 0.00077406, "INCLINATION": 66.0392, "RA_OF_ASC_NODE": 172.4073, "ARG_OF_PERICENTER": 269.1959, "MEAN_ANOMALY": 90.8169, "EPHEMERIS_TYPE": 0, "CLASSIFICATION_TYPE": "U", "NORAD_CAT_ID": 46984, "ELEMENT_SET_NO": 999, "REV_AT_EPOCH": 23582, "BSTAR": 2.2683457e-05, "MEAN_MOTION_DOT": -5.6e-07, "MEAN_MOTION_DDOT": 0}, "tle": {"line1": "1 46984U 20086A   25341.87753688 -.00000056  00000+0  22683-4 0  9990", "line2": "2 46984  66.0392 172.4073 0007740 269.1959  90.8169 12.80930340235825"}}, "geometry": {"type": "Point", "coordinates": [-32.676192067139446, 42.32528193953536]}}, {"type": "Feature", "properties": {"norad_id": 48079, "name": "GAOFEN-12 02", "group": "resource", "lat": -15.970153233930947, "lon": 154.17772561900856, "alt_km": 631.9386970896576, "timestamp": "2025-12-08T10:52:02.607193+00:00", "meta": {"OBJECT_NAME": "GAOFEN-12 02", "OBJECT_ID": "2021-026A", "EPOCH": "2025-12-07T22:37:55.420320", "MEAN_MOTION": 14.80665836, "ECCENTRICITY": 0.00034276, "INCLINATION": 97.9849, "RA_OF_ASC_NODE": 335.9726, "ARG_OF_PERICENTER": 110.5673, "MEAN_ANOMALY": 249.5907, "EPHEMERIS_TYPE": 0, "CLASSIFICATION_TYPE": "U", "NORAD_CAT_ID": 48079, "ELEMENT_SET_NO": 999, "REV_AT_EPOCH": 25346, "BSTAR": 0.00012013497, "MEAN_MOTION_DOT": 8.7e-06, "MEAN_MOTION_DDOT": 0}, "tle": {"line1": "1 48079U 21026A   25341.94300255  .00000870  00000+0  12013-3 0  9996", "line2": "2 48079  97.9849 335.9726 0003427 110.5673 249.5907 14.80665836253463"}}, "geometry": {"type": "Point", "coordinates": [154.17772561900856, -15.970153233930947]}}, {"type": "Feature", "properties": {"norad_id": 48268, "name": "PLEIADES NEO 3", "group": "resource", "lat": -66.30921734620156, "lon": -143.48126696747752, "alt_km": 632.1386289226157, "timestamp": "2025-12-08T10:52:02.607216+00:00", "meta": {"OBJECT_NAME": "PLEIADES NEO 3", "OBJECT_ID": "2021-034A", "EPOCH": "2025-12-07T22:24:29.096640", "MEAN_MOTION": 14.8167039, "ECCENTRICITY": 0.00013314, "INCLINATION": 97.8949, "RA_OF_ASC_NODE": 54.4435, "ARG_OF_PERICENTER": 95.2468, "MEAN_ANOMALY": 264.8897, "EPHEMERIS_TYPE": 0, "CLASSIFICATION_TYPE": "U", "NORAD_CAT_ID": 48268, "ELEMENT_SET_NO": 999, "REV_AT_EPOCH": 24933, "BSTAR": 2.3570299e-05, "MEAN_MOTION_DOT": 1.33e-06, "MEAN_MOTION_DDOT": 0}, "tle": {"line1": "1 48268U 21034A   25341.93367010  .00000133  00000+0  23570-4 0  9999", "line2": "2 48268  97.8949  54.4435 0001331  95.2468 264.8897 14.81670390249337"}}, "geometry": {"type": "Point", "coordinates": [-143.48126696747752, -66.30921734620156]}}, {"type": "Feature", "properties": {"norad_id": 49070, "name": "PLEIADES NEO 4", "group": "resource", "lat": 66.27243169346103, "lon": 36.547826183897826, "alt_km": 616.7882303859424, "timestamp": "2025-12-08T10:52:02.607227+00:00", "meta": {"OBJECT_NAME": "PLEIADES NEO 4", "OBJECT_ID": "2021-073E", "EPOCH": "2025-12-07T21:35:50.634240", "MEAN_MOTION": 14.8167122, "ECCENTRICITY": 0.00012813, "INCLINATION": 97.8951, "RA_OF_ASC_NODE": 54.4065, "ARG_OF_PERICENTER": 95.3106, "MEAN_ANOMALY": 264.8253, "EPHEMERIS_TYPE": 0, "CLASSIFICATION_TYPE": "U", "NORAD_CAT_ID": 49070, "ELEMENT_SET_NO": 999, "REV_AT_EPOCH": 23304, "BSTAR": 7.2098823e-05, "MEAN_MOTION_DOT": 5.15e-06, "MEAN_MOTION_DDOT": 0}, "tle": {"line1": "1 49070U 21073E   25341.89989160  .00000515  00000+0  72099-4 0  9999", "line2": "2 49070  97.8951  54.4065 0001281  95.3106 264.8253 14.81671220233045"}}, "geometry": {"type": "Point", "coordinates": [36.547826183897826, 66.27243169346103]}}, {"type": "Feature", "properties": {"norad_id": 49260, "name": "LANDSAT 9", "group": "resource", "lat": 74.90018849433088, "lon": -97.02478948367332, "alt_km": 694.5638454455984, "timestamp": "2025-12-08T10:52:02.607238+00:00", "meta": {"OBJECT_NAME": "LANDSAT 9", "OBJECT_ID": "2021-088A", "EPOCH": "2025-12-07T22:51:41.425056", "MEAN_MOTION": 14.5712237, "ECCENTRICITY": 0.00011148, "INCLINATION": 98.2099, "RA_OF_ASC_NODE": 50.1329, "ARG_OF_PERICENTER": 94.5516, "MEAN_ANOMALY": 265.581, "EPHEMERIS_TYPE": 0, "CLASSIFICATION_TYPE": "U", "NORAD_CAT_ID": 49260, "ELEMENT_SET_NO": 999, "REV_AT_EPOCH": 22315, "BSTAR": 0.00017506336, "MEAN_MOTION_DOT": 7.44e-06, "MEAN_MOTION_DDOT": 0}, "tle": {"line1": "1 49260U 21088A   25341.95256279  .00000744  00000+0  17506-3 0  9996", "line2": "2 49260  98.2099  50.1329 0001114  94.5516 265.5810 14.57122370223159"}}, "geometry": {"type": "Point", "coordinates": [-97.02478948367332, 74.90018849433088]}}]}